{
  "type": "FeatureCollection",
  "features": [
    {
      "type": "Feature",
      "properties": {
        "norad_id": 66446,
        "name": "STARLINK-34986",
        "group": "last-30-days",
        "lat": 29.03547761152552,
        "lon": 143.96405042625898,
        "alt_km": 411.50371337813067,
        "timestamp": "2025-12-02T10:50:46.052030+00:00",
        "meta_object_name": "STARLINK-34986",
        "meta_object_id": "2025-259AA",
        "meta_epoch": "2025-12-02T04:00:03.998880",
        "meta_mean_motion": 15.50468408,
        "meta_eccentricity": 0.0001573,
        "meta_inclination": 42.9999,
        "meta_ra_of_asc_node": 109.0685,
        "meta_arg_of_pericenter": 255.7364,
        "meta_mean_anomaly": 355.8252,
        "meta_ephemeris_type": 0,
        "meta_classification_type": "U",
        "meta_norad_cat_id": 66446,
        "meta_element_set_no": 999,
        "meta_rev_at_epoch": 458,
        "meta_bstar": 0.0013969,
        "meta_mean_motion_dot": 0.0008215,
        "meta_mean_motion_ddot": 0,
        "tle_line1": "1 66446U 25259AA  25336.16671295  .00082150  00000+0  13969-2 0  9990",
        "tle_line2": "2 66446  42.9999 109.0685 0001573 255.7364 355.8252 15.50468408  4585"
      },
      "geometry": {
        "type": "Point",
        "coordinates": [
          143.96405042625898,
          29.03547761152552
        ]
      }
    },
    {
      "type": "Feature",
      "properties": {
        "norad_id": 66447,
        "name": "STARLINK-34851",
        "group": "last-30-days",
        "lat": 31.136790541999712,
        "lon": 147.80521005975814,
        "alt_km": 411.21348960354135,
        "timestamp": "2025-12-02T10:50:46.052040+00:00",
        "meta_object_name": "STARLINK-34851",
        "meta_object_id": "2025-259AB",
        "meta_epoch": "2025-12-02T04:00:03.998880",
        "meta_mean_motion": 15.50571925,
        "meta_eccentricity": 0.0001979,
        "meta_inclination": 42.9999,
        "meta_ra_of_asc_node": 109.0603,
        "meta_arg_of_pericenter": 265.8639,
        "meta_mean_anomaly": 349.5548,
        "meta_ephemeris_type": 0,
        "meta_classification_type": "U",
        "meta_norad_cat_id": 66447,
        "meta_element_set_no": 999,
        "meta_rev_at_epoch": 447,
        "meta_bstar": -0.00063307,
        "meta_mean_motion_dot": -0.00037297,
        "meta_mean_motion_ddot": 0,
        "tle_line1": "1 66447U 25259AB  25336.16671295 -.00037297  00000+0 -63307-3 0  9997",
        "tle_line2": "2 66447  42.9999 109.0603 0001979 265.8639 349.5548 15.50571925  4478"
      },
      "geometry": {
        "type": "Point",
        "coordinates": [
          147.80521005975814,
          31.136790541999712
        ]
      }
    },
    {
      "type": "Feature",
      "properties": {
        "norad_id": 66448,
        "name": "STARLINK-35355",
        "group": "last-30-days",
        "lat": 32.06518892318047,
        "lon": 149.6295715126291,
        "alt_km": 411.08740083491557,
        "timestamp": "2025-12-02T10:50:46.052050+00:00",
        "meta_object_name": "STARLINK-35355",
        "meta_object_id": "2025-259AC",
        "meta_epoch": "2025-12-02T04:00:03.998880",
        "meta_mean_motion": 15.50458757,
        "meta_eccentricity": 0.0001617,
        "meta_inclination": 42.9999,
        "meta_ra_of_asc_node": 109.0554,
        "meta_arg_of_pericenter": 255.666,
        "meta_mean_anomaly": 1.6461,
        "meta_ephemeris_type": 0,
        "meta_classification_type": "U",
        "meta_norad_cat_id": 66448,
        "meta_element_set_no": 999,
        "meta_rev_at_epoch": 458,
        "meta_bstar": 0.001736,
        "meta_mean_motion_dot": 0.00102406,
        "meta_mean_motion_ddot": 0,
        "tle_line1": "1 66448U 25259AC  25336.16671295  .00102406  00000+0  17360-2 0  9998",
        "tle_line2": "2 66448  42.9999 109.0554 0001617 255.6660   1.6461 15.50458757  4583"
      },
      "geometry": {
        "type": "Point",
        "coordinates": [
          149.6295715126291,
          32.06518892318047
        ]
      }
    },
    {
      "type": "Feature",
      "properties": {
        "norad_id": 66449,
        "name": "STARLINK-34720",
        "group": "last-30-days",
        "lat": 33.01654685138887,
        "lon": 151.59622235025103,
        "alt_km": 410.9459630454867,
        "timestamp": "2025-12-02T10:50:46.052061+00:00",
        "meta_object_name": "STARLINK-34720",
        "meta_object_id": "2025-259AD",
        "meta_epoch": "2025-12-02T04:00:03.998880",
        "meta_mean_motion": 15.5046003,
        "meta_eccentricity": 0.0001548,
        "meta_inclination": 42.9999,
        "meta_ra_of_asc_node": 109.0502,
        "meta_arg_of_pericenter": 249.3599,
        "meta_mean_anomaly": 9.8667,
        "meta_ephemeris_type": 0,
        "meta_classification_type": "U",
        "meta_norad_cat_id": 66449,
        "meta_element_set_no": 999,
        "meta_rev_at_epoch": 447,
        "meta_bstar": 0.0017284,
        "meta_mean_motion_dot": 0.0010195,
        "meta_mean_motion_ddot": 0,
        "tle_line1": "1 66449U 25259AD  25336.16671295  .00101950  00000+0  17284-2 0  9997",
        "tle_line2": "2 66449  42.9999 109.0502 0001548 249.3599   9.8667 15.50460030  4474"
      },
      "geometry": {
        "type": "Point",
        "coordinates": [
          151.59622235025103,
          33.01654685138887
        ]
      }
    },
    {
      "type": "Feature",
      "properties": {
        "norad_id": 66450,
        "name": "STARLINK-35334",
        "group": "last-30-days",
        "lat": 33.935936929137824,
        "lon": 153.60409862888784,
        "alt_km": 410.8308317557812,
        "timestamp": "2025-12-02T10:50:46.052072+00:00",
        "meta_object_name": "STARLINK-35334",
        "meta_object_id": "2025-259AE",
        "meta_epoch": "2025-12-02T04:00:03.998880",
        "meta_mean_motion": 15.5046466,
        "meta_eccentricity": 0.0001568,
        "meta_inclination": 42.9998,
        "meta_ra_of_asc_node": 109.0444,
        "meta_arg_of_pericenter": 247.0797,
        "meta_mean_anomaly": 14.0578,
        "meta_ephemeris_type": 0,
        "meta_classification_type": "U",
        "meta_norad_cat_id": 66450,
        "meta_element_set_no": 999,
        "meta_rev_at_epoch": 458,
        "meta_bstar": 0.0016104,
        "meta_mean_motion_dot": 0.00094897,
        "meta_mean_motion_ddot": 0,
        "tle_line1": "1 66450U 25259AE  25336.16671295  .00094897  00000+0  16104-2 0  9990",
        "tle_line2": "2 66450  42.9998 109.0444 0001568 247.0797  14.0578 15.50464660  4581"
      },
      "geometry": {
        "type": "Point",
        "coordinates": [
          153.60409862888784,
          33.935936929137824
        ]
      }
    },
    {
      "type": "Feature",
      "properties": {
        "norad_id": 66454,
        "name": "VIASAT-3 F2",
        "group": "last-30-days",
        "lat": 2.554054339301145,
        "lon": 86.17233740521674,
        "alt_km": 12810.51720206899,
        "timestamp": "2025-12-02T10:50:46.052083+00:00",
        "meta_object_name": "VIASAT-3 F2",
        "meta_object_id": "2025-261A",
        "meta_epoch": "2025-11-26T17:55:45.153696",
        "meta_mean_motion": 2.28187844,
        "meta_eccentricity": 0.23413249,
        "meta_inclination": 5.5832,
        "meta_ra_of_asc_node": 293.8608,
        "meta_arg_of_pericenter": 182.7714,
        "meta_mean_anomaly": 334.4159,
        "meta_ephemeris_type": 0,
        "meta_classification_type": "U",
        "meta_norad_cat_id": 66454,
        "meta_element_set_no": 999,
        "meta_rev_at_epoch": 28,
        "meta_bstar": 0,
        "meta_mean_motion_dot": -5.1e-07,
        "meta_mean_motion_ddot": 0,
        "tle_line1": "1 66454U 25261A   25330.74705039 -.00000051  00000+0  00000+0 0  9994",
        "tle_line2": "2 66454   5.5832 293.8608 2341324 182.7714 334.4159  2.28187844   288"
      },
      "geometry": {
        "type": "Point",
        "coordinates": [
          86.17233740521674,
          2.554054339301145
        ]
      }
    },
    {
      "type": "Feature",
      "properties": {
        "norad_id": 66455,
        "name": "ATLAS 5 CENTAUR R/B",
        "group": "last-30-days",
        "lat": 4.1000418121667135,
        "lon": 71.12279418611236,
        "alt_km": 13456.830673708122,
        "timestamp": "2025-12-02T10:50:46.052097+00:00",
        "meta_object_name": "ATLAS 5 CENTAUR R/B",
        "meta_object_id": "2025-261B",
        "meta_epoch": "2025-12-01T09:05:22.267680",
        "meta_mean_motion": 2.28259456,
        "meta_eccentricity": 0.2329758,
        "meta_inclination": 6.1608,
        "meta_ra_of_asc_node": 292.7524,
        "meta_arg_of_pericenter": 184.1992,
        "meta_mean_anomaly": 169.0341,
        "meta_ephemeris_type": 0,
        "meta_classification_type": "U",
        "meta_norad_cat_id": 66455,
        "meta_element_set_no": 999,
        "meta_rev_at_epoch": 38,
        "meta_bstar": 0,
        "meta_mean_motion_dot": -4.6e-07,
        "meta_mean_motion_ddot": 0,
        "tle_line1": "1 66455U 25261B   25335.37872995 -.00000046  00000+0  00000+0 0  9999",
        "tle_line2": "2 66455   6.1608 292.7524 2329758 184.1992 169.0341  2.28259456   388"
      },
      "geometry": {
        "type": "Point",
        "coordinates": [
          71.12279418611236,
          4.1000418121667135
        ]
      }
    }
  ]
}